[{"OBJECT_NAME":"PROPCUBE 3","OBJECT_ID":"2015-058K","EPOCH":"2026-03-09T17:34:06.780288","MEAN_MOTION":14.93528956,"ECCENTRICITY":0.01235273,"INCLINATION":64.7688,"RA_OF_ASC_NODE":203.0958,"ARG_OF_PERICENTER":99.6156,"MEAN_ANOMALY":261.8939,"EPHEMERIS_TYPE":0,"CLASSIFICATION_TYPE":"U","NORAD_CAT_ID":40973,"ELEMENT_SET_NO":999,"REV_AT_EPOCH":9994,"BSTAR":0.00046586011,"MEAN_MOTION_DOT":5.546e-5,"MEAN_MOTION_DDOT":0},{"OBJECT_NAME":"STARLINK-5247","OBJECT_ID":"2022-141AY","EPOCH":"2026-03-09T23:23:21.342912","MEAN_MOTION":15.0885457,"ECCENTRICITY":0.00015492,"INCLINATION":53.2189,"RA_OF_ASC_NODE":352.6533,"ARG_OF_PERICENTER":48.7777,"MEAN_ANOMALY":311.3348,"EPHEMERIS_TYPE":0,"CLASSIFICATION_TYPE":"U","NORAD_CAT_ID":54203,"ELEMENT_SET_NO":999,"REV_AT_EPOCH":18604,"BSTAR":0.00013108326,"MEAN_MOTION_DOT":1.8e-5,"MEAN_MOTION_DDOT":0}]
